start=new Date('2022-03-15T00:00:00.000Z').valueOf();
sats=[{"OBJECT_TYPE":"PAYLOAD","TLE_LINE2":"2 48473  53.0510 247.6137 0001670  43.6524 316.4596 15.06414044 47048","GP_ID":"198768892","OBJECT_NAME":"STARLINK-2658","ELEMENT_SET_NO":"999","MEAN_ELEMENT_THEORY":"SGP4","PERIAPSIS":"546.014","BSTAR":"0.00159640000000","FILE":"3359665","MEAN_ANOMALY":"316.4596","CENTER_NAME":"EARTH","EPHEMERIS_TYPE":"0","COUNTRY_CODE":"US","ECCENTRICITY":"0.00016700","REF_FRAME":"TEME","APOAPSIS":"548.327","NORAD_CAT_ID":"48473","PERIOD":"95.591","MEAN_MOTION_DDOT":"0.0000000000000","SITE":"AFETR","OBJECT_ID":"2021-040AX","RA_OF_ASC_NODE":"247.6137","TIME_SYSTEM":"UTC","EPOCH":"2022-03-14T17:53:37.935744","REV_AT_EPOCH":"4704","SEMIMAJOR_AXIS":"6925.306","DECAY_DATE":null,"TLE_LINE1":"1 48473U 21040AX  22073.74557796  .00023586  00000-0  15964-2 0  9998","ARG_OF_PERICENTER":"43.6524","CLASSIFICATION_TYPE":"U","LAUNCH_DATE":"2021-05-09","INCLINATION":"53.0510","RCS_SIZE":"MEDIUM","MEAN_MOTION_DOT":"0.00023586","MEAN_MOTION":"15.06414044"},{"CLASSIFICATION_TYPE":"U","LAUNCH_DATE":"2021-05-09","INCLINATION":"53.0539","SEMIMAJOR_AXIS":"6925.363","TLE_LINE1":"1 48474U 21040AY  22073.77873621 -.00000062  00000-0  14752-4 0  9991","DECAY_DATE":null,"ARG_OF_PERICENTER":"69.4540","MEAN_MOTION":"15.06395451","MEAN_MOTION_DOT":"-0.00000062","RCS_SIZE":"LARGE","SITE":"AFETR","MEAN_MOTION_DDOT":"0.0000000000000","OBJECT_ID":"2021-040AY","RA_OF_ASC_NODE":"247.4512","TIME_SYSTEM":"UTC","PERIOD":"95.592","EPOCH":"2022-03-14T18:41:22.808544","REV_AT_EPOCH":"4704","EPHEMERIS_TYPE":"0","BSTAR":"0.00001475200000","FILE":"3359665","MEAN_ANOMALY":"290.6619","CENTER_NAME":"EARTH","APOAPSIS":"548.322","NORAD_CAT_ID":"48474","COUNTRY_CODE":"US","ECCENTRICITY":"0.00015800","REF_FRAME":"TEME","GP_ID":"198768140","OBJECT_NAME":"STARLINK-2697","OBJECT_TYPE":"PAYLOAD","TLE_LINE2":"2 48474  53.0539 247.4512 0001580  69.4540 290.6619 15.06395451 47048","ELEMENT_SET_NO":"999","MEAN_ELEMENT_THEORY":"SGP4","PERIAPSIS":"546.133"},{"LAUNCH_DATE":"2021-05-09","CLASSIFICATION_TYPE":"U","INCLINATION":"53.0534","SEMIMAJOR_AXIS":"6925.366","DECAY_DATE":null,"TLE_LINE1":"1 48475U 21040AZ  22073.74925518 -.00000577  00000-0 -19834-4 0  9990","ARG_OF_PERICENTER":"51.0092","MEAN_MOTION":"15.06394179","MEAN_MOTION_DOT":"-0.00000577","RCS_SIZE":"LARGE","SITE":"AFETR","MEAN_MOTION_DDOT":"0.0000000000000","OBJECT_ID":"2021-040AZ","RA_OF_ASC_NODE":"247.5988","TIME_SYSTEM":"UTC","PERIOD":"95.593","REV_AT_EPOCH":"4704","EPOCH":"2022-03-14T17:58:55.647552","EPHEMERIS_TYPE":"0","BSTAR":"-0.00001983400000","FILE":"3359665","MEAN_ANOMALY":"309.1040","CENTER_NAME":"EARTH","APOAPSIS":"548.344","NORAD_CAT_ID":"48475","COUNTRY_CODE":"US","ECCENTRICITY":"0.00016070","REF_FRAME":"TEME","GP_ID":"198768389","OBJECT_NAME":"STARLINK-2619","OBJECT_TYPE":"PAYLOAD","TLE_LINE2":"2 48475  53.0534 247.5988 0001607  51.0092 309.1040 15.06394179 47041","ELEMENT_SET_NO":"999","MEAN_ELEMENT_THEORY":"SGP4","PERIAPSIS":"546.118"},{"PERIOD":"95.592","SITE":"AFETR","MEAN_MOTION_DDOT":"0.0000000000000","OBJECT_ID":"2021-040BA","RA_OF_ASC_NODE":"247.1846","TIME_SYSTEM":"UTC","REV_AT_EPOCH":"4705","EPOCH":"2022-03-14T20:06:17.652384","SEMIMAJOR_AXIS":"6925.349","TLE_LINE1":"1 48476U 21040BA  22073.83770431  .00001529  00000-0  12150-3 0  9992","DECAY_DATE":null,"ARG_OF_PERICENTER":"77.6738","CLASSIFICATION_TYPE":"U","LAUNCH_DATE":"2021-05-09","INCLINATION":"53.0528","RCS_SIZE":"LARGE","MEAN_MOTION_DOT":"0.00001529","MEAN_MOTION":"15.06399758","OBJECT_TYPE":"PAYLOAD","TLE_LINE2":"2 48476  53.0528 247.1846 0001190  77.6738 282.4384 15.06399758 47055","GP_ID":"198769141","OBJECT_NAME":"STARLINK-2723","ELEMENT_SET_NO":"999","PERIAPSIS":"546.390","MEAN_ELEMENT_THEORY":"SGP4","BSTAR":"0.00012150000000","FILE":"3359665","CENTER_NAME":"EARTH","MEAN_ANOMALY":"282.4384","EPHEMERIS_TYPE":"0","COUNTRY_CODE":"US","ECCENTRICITY":"0.00011900","REF_FRAME":"TEME","APOAPSIS":"548.038","NORAD_CAT_ID":"48476"},{"TIME_SYSTEM":"UTC","RA_OF_ASC_NODE":"247.8642","SITE":"AFETR","MEAN_MOTION_DDOT":"0.0000000000000","OBJECT_ID":"2021-040BC","PERIOD":"95.592","REV_AT_EPOCH":"4703","EPOCH":"2022-03-14T16:33:58.753440","INCLINATION":"53.0524","CLASSIFICATION_TYPE":"U","LAUNCH_DATE":"2021-05-09","ARG_OF_PERICENTER":"79.4575","TLE_LINE1":"1 48478U 02032DG  22073.69026335 -.00001605  00000-0 -88853-4 0  9996","DECAY_DATE":null,"SEMIMAJOR_AXIS":"6925.360","MEAN_MOTION":"15.06396219","RCS_SIZE":"LARGE","MEAN_MOTION_DOT":"-0.00001605","OBJECT_NAME":"STARLINK-2728","GP_ID":"198769392","TLE_LINE2":"2 48478  53.0524 247.8642 0001615  79.4575 280.6596 15.06396219 47037","OBJECT_TYPE":"PAYLOAD","MEAN_ELEMENT_THEORY":"SGP4","PERIAPSIS":"546.107","ELEMENT_SET_NO":"999","EPHEMERIS_TYPE":"0","MEAN_ANOMALY":"280.6596","CENTER_NAME":"EARTH","FILE":"3359665","BSTAR":"-0.00008885300000","NORAD_CAT_ID":"48478","APOAPSIS":"548.344","REF_FRAME":"TEME","COUNTRY_CODE":"US","ECCENTRICITY":"0.00016150"},{"MEAN_ELEMENT_THEORY":"SGP4","PERIAPSIS":"546.196","ELEMENT_SET_NO":"999","OBJECT_NAME":"STARLINK-2755","GP_ID":"198767641","TLE_LINE2":"2 48479  53.0543 247.5812 0001499  75.3805 284.7351 15.06393366 47041","OBJECT_TYPE":"PAYLOAD","APOAPSIS":"548.272","NORAD_CAT_ID":"48479","REF_FRAME":"TEME","COUNTRY_CODE":"US","ECCENTRICITY":"0.00014990","EPHEMERIS_TYPE":"0","MEAN_ANOMALY":"284.7351","CENTER_NAME":"EARTH","BSTAR":"-0.00000058648000","FILE":"3359665","EPOCH":"2022-03-14T18:04:13.179648","REV_AT_EPOCH":"4704","RA_OF_ASC_NODE":"247.5812","TIME_SYSTEM":"UTC","OBJECT_ID":"2021-040BD","SITE":"AFETR","MEAN_MOTION_DDOT":"0.0000000000000","PERIOD":"95.593","MEAN_MOTION":"15.06393366","MEAN_MOTION_DOT":"-0.00000290","RCS_SIZE":"LARGE","LAUNCH_DATE":"2021-05-09","CLASSIFICATION_TYPE":"U","INCLINATION":"53.0543","TLE_LINE1":"1 48479U 21040BD  22073.75293032 -.00000290  00000-0 -58648-6 0  9994","DECAY_DATE":null,"ARG_OF_PERICENTER":"75.3805","SEMIMAJOR_AXIS":"6925.369"},{"RCS_SIZE":"LARGE","MEAN_MOTION_DOT":"0.00003703","MEAN_MOTION":"15.06414179","TLE_LINE1":"1 48480U 21040BE  22073.76676384  .00003703  00000-0  26723-3 0  9998","DECAY_DATE":null,"ARG_OF_PERICENTER":"60.8859","SEMIMAJOR_AXIS":"6925.305","CLASSIFICATION_TYPE":"U","LAUNCH_DATE":"2021-05-09","INCLINATION":"53.0549","REV_AT_EPOCH":"4690","EPOCH":"2022-03-14T18:24:08.395776","PERIOD":"95.591","RA_OF_ASC_NODE":"257.5075","TIME_SYSTEM":"UTC","SITE":"AFETR","MEAN_MOTION_DDOT":"0.0000000000000","OBJECT_ID":"2021-040BE","REF_FRAME":"TEME","ECCENTRICITY":"0.00016550","COUNTRY_CODE":"US","APOAPSIS":"548.316","NORAD_CAT_ID":"48480","MEAN_ANOMALY":"299.2295","CENTER_NAME":"EARTH","BSTAR":"0.00026723000000","FILE":"3359665","EPHEMERIS_TYPE":"0","PERIAPSIS":"546.024","MEAN_ELEMENT_THEORY":"SGP4","ELEMENT_SET_NO":"999","TLE_LINE2":"2 48480  53.0549 257.5075 0001655  60.8859 299.2295 15.06414179 46901","OBJECT_TYPE":"PAYLOAD","OBJECT_NAME":"STARLINK-2690","GP_ID":"198767890"},{"CLASSIFICATION_TYPE":"U","LAUNCH_DATE":"2021-05-09","INCLINATION":"53.0538","DECAY_DATE":null,"TLE_LINE1":"1 48481U 21040BF  22073.78053943  .00000707  00000-0  66348-4 0  9990","ARG_OF_PERICENTER":"68.0684","SEMIMAJOR_AXIS":"6925.325","MEAN_MOTION":"15.06407713","MEAN_MOTION_DOT":"0.00000707","RCS_SIZE":"LARGE","RA_OF_ASC_NODE":"257.4511","TIME_SYSTEM":"UTC","SITE":"AFETR","MEAN_MOTION_DDOT":"0.0000000000000","OBJECT_ID":"2021-040BF","PERIOD":"95.592","REV_AT_EPOCH":"4690","EPOCH":"2022-03-14T18:43:58.606752","EPHEMERIS_TYPE":"0","MEAN_ANOMALY":"292.0477","CENTER_NAME":"EARTH","BSTAR":"0.00006634800000","FILE":"3359665","APOAPSIS":"548.313","NORAD_CAT_ID":"48481","REF_FRAME":"TEME","COUNTRY_CODE":"US","ECCENTRICITY":"0.00016210","OBJECT_NAME":"STARLINK-2706","GP_ID":"198768642","TLE_LINE2":"2 48481  53.0538 257.4511 0001621  68.0684 292.0477 15.06407713 46902","OBJECT_TYPE":"PAYLOAD","PERIAPSIS":"546.067","MEAN_ELEMENT_THEORY":"SGP4","ELEMENT_SET_NO":"999"},{"MEAN_MOTION":"15.06403408","MEAN_MOTION_DOT":"0.00001628","RCS_SIZE":"LARGE","INCLINATION":"53.0556","LAUNCH_DATE":"2021-05-09","CLASSIFICATION_TYPE":"U","ARG_OF_PERICENTER":"70.4564","DECAY_DATE":null,"TLE_LINE1":"1 48482U 21040BG  22073.77412252  .00001628  00000-0  12818-3 0  9997","SEMIMAJOR_AXIS":"6925.338","EPOCH":"2022-03-14T18:34:44.185728","REV_AT_EPOCH":"4690","TIME_SYSTEM":"UTC","RA_OF_ASC_NODE":"257.4838","SITE":"AFETR","MEAN_MOTION_DDOT":"0.0000000000000","OBJECT_ID":"2021-040BG","PERIOD":"95.592","NORAD_CAT_ID":"48482","APOAPSIS":"548.401","REF_FRAME":"TEME","COUNTRY_CODE":"US","ECCENTRICITY":"0.00017300","EPHEMERIS_TYPE":"0","CENTER_NAME":"EARTH","MEAN_ANOMALY":"289.6612","FILE":"3359665","BSTAR":"0.00012818000000","MEAN_ELEMENT_THEORY":"SGP4","PERIAPSIS":"546.005","ELEMENT_SET_NO":"999","OBJECT_NAME":"STARLINK-2525","GP_ID":"198768893","TLE_LINE2":"2 48482  53.0556 257.4838 0001730  70.4564 289.6612 15.06403408 46900","OBJECT_TYPE":"PAYLOAD"},{"MEAN_ELEMENT_THEORY":"SGP4","PERIAPSIS":"545.940","ELEMENT_SET_NO":"999","TLE_LINE2":"2 48483  53.0543 257.4975 0001861  61.3557 298.7619 15.06395080 46909","OBJECT_TYPE":"PAYLOAD","OBJECT_NAME":"STARLINK-2531","GP_ID":"198768141","REF_FRAME":"TEME","COUNTRY_CODE":"US","ECCENTRICITY":"0.00018610","NORAD_CAT_ID":"48483","APOAPSIS":"548.517","CENTER_NAME":"EARTH","MEAN_ANOMALY":"298.7619","FILE":"3359665","BSTAR":"-0.00009257200000","EPHEMERIS_TYPE":"0","REV_AT_EPOCH":"4690","EPOCH":"2022-03-14T18:29:26.086848","PERIOD":"95.592","TIME_SYSTEM":"UTC","RA_OF_ASC_NODE":"257.4975","SITE":"AFETR","MEAN_MOTION_DDOT":"0.0000000000000","OBJECT_ID":"2021-040BH","RCS_SIZE":"LARGE","MEAN_MOTION_DOT":"-0.00001660","MEAN_MOTION":"15.06395080","ARG_OF_PERICENTER":"61.3557","TLE_LINE1":"1 48483U 21040BH  22073.77044082 -.00001660  00000-0 -92572-4 0  9994","DECAY_DATE":null,"SEMIMAJOR_AXIS":"6925.364","INCLINATION":"53.0543","LAUNCH_DATE":"2021-05-09","CLASSIFICATION_TYPE":"U"}];
